CENTAURI-1              
1 43809U 18099BD  26200.14161660  .00002624  00000+0  13728-3 0  9993
2 43809  97.4199 251.1779 0013329 210.3790 149.6673 15.16646071417349
CENTAURI-6              
1 59451U 24066K   26200.10828630  .00002420  00000+0  17983-3 0  9998
2 59451  45.6065  87.7540 0001705 257.1383 102.9311 15.06055724124936
CENTAURI-7              
1 62708U 25009DD  26200.19278374  .00001001  00000+0  89778-4 0  9994
2 62708  97.7095 280.0638 0002514  95.6846 264.4663 14.97985565 82256
CENTAURI-8              
1 62714U 25009DK  26200.22159559  .00001541  00000+0  13569-3 0  9991
2 62714  97.7035 279.9097 0002482  76.3656 283.7843 14.97938688 82272
