{"fetched_at":"2026-07-19T17:31:26.555Z","source":"https://celestrak.org/NORAD/elements/gp.php?NAME=CENTAURI&FORMAT=JSON","constellation":"myriota","records":[{"OBJECT_NAME":"CENTAURI-1","OBJECT_ID":"2018-099BD","EPOCH":"2026-07-19T03:23:55.674240","CLASSIFICATION_TYPE":"U","MEAN_MOTION":15.16646071,"ECCENTRICITY":0.0013329,"INCLINATION":97.4199,"RA_OF_ASC_NODE":251.1779,"ARG_OF_PERICENTER":210.379,"MEAN_ANOMALY":149.6673,"EPHEMERIS_TYPE":0,"NORAD_CAT_ID":43809,"ELEMENT_SET_NO":999,"REV_AT_EPOCH":41734,"BSTAR":0.00013728047,"MEAN_MOTION_DOT":0.00002624,"MEAN_MOTION_DDOT":0},{"OBJECT_NAME":"CENTAURI-6","OBJECT_ID":"2024-066K","EPOCH":"2026-07-19T02:35:55.936320","CLASSIFICATION_TYPE":"U","MEAN_MOTION":15.06055724,"ECCENTRICITY":0.00017058,"INCLINATION":45.6065,"RA_OF_ASC_NODE":87.754,"ARG_OF_PERICENTER":257.1383,"MEAN_ANOMALY":102.9311,"EPHEMERIS_TYPE":0,"NORAD_CAT_ID":59451,"ELEMENT_SET_NO":999,"REV_AT_EPOCH":12493,"BSTAR":0.00017983155,"MEAN_MOTION_DOT":0.0000242,"MEAN_MOTION_DDOT":0},{"OBJECT_NAME":"CENTAURI-7","OBJECT_ID":"2025-009DD","EPOCH":"2026-07-19T04:37:36.515136","CLASSIFICATION_TYPE":"U","MEAN_MOTION":14.97985565,"ECCENTRICITY":0.00025143,"INCLINATION":97.7095,"RA_OF_ASC_NODE":280.0638,"ARG_OF_PERICENTER":95.6846,"MEAN_ANOMALY":264.4663,"EPHEMERIS_TYPE":0,"NORAD_CAT_ID":62708,"ELEMENT_SET_NO":999,"REV_AT_EPOCH":8225,"BSTAR":0.000089778055,"MEAN_MOTION_DOT":0.00001001,"MEAN_MOTION_DDOT":0},{"OBJECT_NAME":"CENTAURI-8","OBJECT_ID":"2025-009DK","EPOCH":"2026-07-19T05:19:05.858976","CLASSIFICATION_TYPE":"U","MEAN_MOTION":14.97938688,"ECCENTRICITY":0.0002482,"INCLINATION":97.7035,"RA_OF_ASC_NODE":279.9097,"ARG_OF_PERICENTER":76.3656,"MEAN_ANOMALY":283.7843,"EPHEMERIS_TYPE":0,"NORAD_CAT_ID":62714,"ELEMENT_SET_NO":999,"REV_AT_EPOCH":8227,"BSTAR":0.00013569219,"MEAN_MOTION_DOT":0.00001541,"MEAN_MOTION_DDOT":0}]}
